ONEWEB-0363             
1 49289U 21090L   24288.56490022  .00000094  00000+0  20025-3 0  9990
2 49289  87.9283  35.9012 0001413 109.9327 250.1958 13.20767770149702
ONEWEB-0364             
1 49290U 21090M   24288.29974920  .00000140  00000+0  31120-3 0  9996
2 49290  87.9287  35.9804 0001778 104.8097 255.3234 13.20773514150809
ONEWEB-0365             
1 49291U 21090N   24288.86152823  .00000035  00000+0  55198-4 0  9995
2 49291  87.9134  66.3346 0001833  95.9685 264.1657 13.19726485145922
ONEWEB-0366             
1 49292U 21090P   24288.81904156  .00000197  00000+0  49633-3 0  9990
2 49292  87.9004  51.0882 0001682 101.5586 258.5733 13.14501230147378
ONEWEB-0367             
1 49293U 21090Q   24288.56331649  .00000115  00000+0  25031-3 0  9990
2 49293  87.9283  35.8962 0001955 102.4728 257.6624 13.20776197149226
ONEWEB-0368             
1 49294U 21090R   24288.53649275 -.00000071  00000+0 -20696-3 0  9990
2 49294  87.9285  35.9325 0002223 125.5119 234.6222 13.20771515150378
ONEWEB-0369             
1 49295U 21090S   24288.62934063  .00000158  00000+0  36338-3 0  9997
2 49295  87.9144  66.3918 0001754  96.3269 263.8063 13.19729338145889
ONEWEB-0370             
1 49296U 21090T   24288.26976120  .00000199  00000+0  45833-3 0  9993
2 49296  87.9282  35.9593 0001828  89.4828 270.6515 13.20773520149224
